INTELSAT 10 (IS-10)     
1 26766U 01019A   18065.16061282  .00000104  00000-0  00000+0 0  9998
2 26766   2.0683  83.9475 0002549 271.6798 273.5192  1.00273465 61592
INTELSAT 901 (IS-901)   
1 26824U 01024A   18064.85827737 -.00000164  00000-0  00000-0 0  9997
2 26824   0.0310  96.0186 0002425 309.4582  49.0087  1.00272559 61345
ASTRA 2C                
1 26853U 01025A   18065.26646484  .00000025  00000-0  00000+0 0  9998
2 26853   0.9591  90.8847 0003655 254.8398 334.4098  1.00270913 61241
INTELSAT 902 (IS-902)   
1 26900U 01039A   18064.87414819  .00000010  00000-0  00000-0 0  9992
2 26900   0.0256 112.8776 0002908 238.9956 188.3557  1.00272763 60387
EUTELSAT 12 WEST B      
1 26927U 01042A   18065.06573875 -.00000123  00000-0  00000+0 0  9990
2 26927   0.0694  25.7467 0006111 321.1052 188.0341  1.00271769 60195
DIRECTV 4S              
1 26985U 01052A   18064.54840802 -.00000136  00000-0  00000-0 0  9999
2 26985   0.0184 123.1466 0002980 229.6781 266.6191  1.00271914 20976
ECHOSTAR 7              
1 27378U 02006A   18064.60532185 -.00000023  00000-0  00000-0 0  9990
2 27378   0.0476 303.9254 0001411  38.4813 279.9602  1.00271605 20296
INTELSAT 904 (IS-904)   
1 27380U 02007A   18065.15888378  .00000114  00000-0  00000+0 0  9992
2 27380   0.0116 176.1782 0002864 175.2388 274.6815  1.00272815 58750
TDRS 9                  
1 27389U 02011A   18065.13493757 -.00000122  00000-0  00000+0 0  9997
2 27389   5.7837  75.9737 0023993 253.3399 230.8472  1.00272854 60101
JCSAT 2A                
1 27399U 02015A   18065.02901265 -.00000276  00000-0  00000+0 0  9998
2 27399   1.0385  91.1393 0007400 186.9904 348.9984  1.00270708 58286
ASTRA 3A                
1 27400U 02015B   18063.86742306 -.00000304  00000-0  00000-0 0  9993
2 27400   4.3089  67.5587 0003161 286.6095  73.6398  1.00274806 58382
INTELSAT 903 (IS-903)   
1 27403U 02016A   18064.48726759 -.00000247  00000-0  00000-0 0  9996
2 27403   0.4024  95.0992 0002098 296.5827 275.3851  1.00272923 15339
NSS-7                   
1 27414U 02019A   18064.82962651 -.00000178  00000-0  00000+0 0  9994
2 27414   2.4378  81.6772 0002871 283.2453  77.2307  1.00271292 58227
DIRECTV 5 (TEMPO 1)     
1 27426U 02023A   18062.85707134 -.00000082  00000-0  00000-0 0  9991
2 27426   0.0119 132.1112 0003930 221.1728   6.6772  1.00269035 57953
INTELSAT 905 (IS-905)   
1 27438U 02027A   18065.36671674 -.00000206  00000-0  00000+0 0  9993
2 27438   0.0310 235.9712 0002761  95.0959 300.4710  1.00273010 57632
EXPRESS-A4              
1 27441U 02029A   18064.88861316 -.00000266  00000-0  00000+0 0  9995
2 27441   6.4946  54.9009 0003215  60.2432 153.7036  1.00269602 57636
GALAXY 3C (G-3C)        
1 27445U 02030A   18063.81248462 -.00000176  00000-0  00000-0 0  9995
2 27445   0.0343 289.9765 0000636  93.6535 336.3409  1.00271086 16242
EUTELSAT 5 WEST A       
1 27460U 02035A   18064.56035836 -.00000066  00000-0  00000-0 0  9997
2 27460   0.0545  42.6529 0006031 307.6120   9.6927  1.00273449 57298
N-STAR C                
1 27461U 02035B   18065.49030618 -.00000330  00000-0  00000+0 0  9997
2 27461   5.1130  63.3719 0003325 328.3247  84.9818  1.00272354 57333
EUTELSAT 36 WEST A      
1 27508U 02040A   18064.45680699  .00000091  00000-0  00000-0 0  9994
2 27508   0.0672  24.3627 0003979  93.6475 241.9994  1.00906672 56915
METEOSAT-8 (MSG-1)      
1 27509U 02040B   18064.59125451  .00000120  00000-0  00000+0 0  9992
2 27509   5.2903  57.3648 0003076 315.1034  45.0685  1.00266179 56911
INTELSAT 906 (IS-906)   
1 27513U 02041A   18065.26160295 -.00000007  00000-0  00000+0 0  9993
2 27513   0.0110 171.7117 0002754 176.8069 333.7293  1.00271904 56636
KALPANA-1 (METSAT 1)    
1 27525U 02043A   18057.51255309 -.00000094  00000-0  00000+0 0  9994
2 27525   6.7646  53.6359 0015602 244.8879 115.1007  1.00273078 56632
HISPASAT 1D             
1 27528U 02044A   18064.86092350 -.00000239  00000-0  00000-0 0  9991
2 27528   0.0512 322.4552 0005727  18.9966 101.9956  1.00270912 12474
TDRS 10                 
1 27566U 02055A   18064.19133265  .00000056  00000-0  00000-0 0  9998
2 27566   5.4805  57.2705 0012648 244.2708 115.7921  1.00270355 55890
NSS-6                   
1 27603U 02057A   18064.59391424 -.00000293  00000-0  00000+0 0  9992
2 27603   0.0188 148.3888 0002382 180.9585 142.7132  1.00271795 55752
NIMIQ 2                 
1 27632U 02062A   18064.52414814 -.00000249  00000-0  00000-0 0  9994
2 27632   2.5393  80.8519 0000647 326.0169  34.4737  1.00275033 13877
INTELSAT 907 (IS-907)   
1 27683U 03007A   18064.48726759 -.00000226  00000-0  00000+0 0  9993
2 27683   0.0129 169.7328 0003049 178.1198 323.2120  1.00272498 55047
GALAXY 12 (G-12)        
1 27715U 03013B   18064.61573771  .00000036  00000-0  00000-0 0  9994
2 27715   0.0469 299.3525 0002022  54.8538 261.7294  1.00272460 21801
ASIASAT 4               
1 27718U 03014A   18064.67412819  .00000130  00000-0  00000+0 0  9993
2 27718   0.0224 125.7923 0002210  70.0142 248.4144  1.00272775 54583
HELLAS-SAT 2            
1 27811U 03020A   18064.85674292  .00000129  00000-0  00000-0 0  9998
2 27811   0.0544 168.9568 0003264 150.2248 191.7623  1.00274441 12526
THURAYA-2               
1 27825U 03026A   18065.04421030  .00000111  00000-0  00000+0 0  9991
2 27825   5.1460  30.1566 0005375 308.1349 245.3242  1.00273919 54015
OPTUS C1                
1 27831U 03028B   18064.68382642 -.00000171  00000-0  00000-0 0  9992
2 27831   0.0360 208.0295 0002588 131.2571 226.2434  1.00272208 22729
ECHOSTAR 12 (RAINBOW 1) 
1 27852U 03033A   18065.47337868 -.00000221  00000-0  00000+0 0  9994
2 27852   0.0455 303.1507 0001990   4.8355 300.1271  1.00274863 53635
GALAXY 23 (G-23)        
1 27854U 03034A   18065.38966270 -.00000009  00000-0  00000+0 0  9996
2 27854   0.0120 175.0955 0003265 182.6438 185.5802  1.00272510 58214
GALAXY 13 (HORIZONS-1)  
1 27954U 03044A   18064.61573771  .00000025  00000-0  00000-0 0  9991
2 27954   0.0085 189.1103 0001313 155.2423 273.5876  1.00274022 16244
YAMAL 202               
1 28089U 03053A   18064.59238042  .00000096  00000-0  00000-0 0  9995
2 28089   0.0622 100.2634 0002753 217.6511 107.5885  1.00273294 52341
EXPRESS-AM22 (SESAT 2)  
1 28134U 03060A   18065.04698681 -.00000159  00000-0  00000+0 0  9994
2 28134   1.0096  90.4252 0000362 314.5397 215.7498  1.00271823 51939
AMC-10 (GE-10)          
1 28154U 04003A   18064.62868490  .00000065  00000-0  00000-0 0  9990
2 28154   0.0465 302.3744 0001769  82.3578 229.8735  1.00273362 51563
ABS-4 (MOBISAT-1)       
1 28184U 04007A   18064.80275528  .00000018  00000-0  00000-0 0  9999
2 28184   0.0224 241.5945 0001600  99.0283 172.8253  1.00272478 21991
EUTELSAT 7A             
1 28187U 04008A   18064.83462956  .00000025  00000-0  00000-0 0  9997
2 28187   0.0666 347.5562 0003190   0.9401 122.4452  1.00272171 51046
DIRECTV 7S              
1 28238U 04016A   18064.60532185 -.00000022  00000-0  00000-0 0  9998
2 28238   0.0174 135.1494 0003199 224.2669 262.7251  1.00271584 50724
AMC-11 (GE-11)          
1 28252U 04017A   18064.61573771  .00000046  00000-0  00000+0 0  9996
2 28252   0.0192 262.6816 0002705  99.2852 251.9929  1.00270329 50368
INTELSAT 10-02          
1 28358U 04022A   18065.34212825 -.00000033  00000-0  00000+0 0  9997
2 28358   0.0129 155.1130 0000256 124.7990   6.2670  1.00272074 50291
APSTAR 5 (TELSTAR 18)   
1 28364U 04024A   18064.69837623 -.00000317  00000-0  00000-0 0  9998
2 28364   0.0392 278.0544 0003189  71.9193 202.8119  1.00272809 50287
ANIK F2                 
1 28378U 04027A   18064.60532185 -.00000072  00000-0  00000-0 0  9990
2 28378   0.0221 136.6329 0000250 306.9167 186.5823  1.00269448 10956
AMC-15                  
1 28446U 04041A   18064.55305227 -.00000112  00000-0  00000-0 0  9996
2 28446   0.0597 314.7456 0002886  48.3798 254.1268  1.00272635 49052
AMC-16                  
1 28472U 04048A   18065.10948674 -.00000228  00000-0  00000+0 0  9990
2 28472   0.0560 309.7034 0002652  45.5941 122.8863  1.00272592 48487
NSS-10 (AMC-12)         
1 28526U 05003A   18064.78452132 -.00000273  00000-0  00000-0 0  9995
2 28526   0.0594 293.3693 0002923  49.2500  65.7995  1.00272291 22834
XTAR-EUR                
1 28542U 05005A   18064.46626828  .00000127  00000-0  00000-0 0  9992
2 28542   0.0357 103.6016 0003270 263.0366 353.3352  1.00272507 47855
XM-3 (RHYTHM)           
1 28626U 05008A   18064.57618674 -.00000229  00000-0  00000-0 0  9994
2 28626   0.0180 332.7156 0000307  77.8802 234.9471  1.00272541 12302
INMARSAT 4-F1           
1 28628U 05009A   18064.19333444 -.00000284  00000-0  00000-0 0  9995
2 28628   2.9096  15.7132 0003334 342.0884  18.1426  1.00272086 47330
APSTAR 6                
1 28638U 05012A   18065.38032104 -.00000340  00000-0  00000+0 0  9993
2 28638   0.0287 111.5773 0002876 233.0559  90.3027  1.00269734 72081
SPACEWAY 1              
1 28644U 05015A   18064.93379344 -.00000125  00000-0  00000+0 0  9994
2 28644   0.0447 324.4267 0000216  53.1745  19.2294  1.00272744 47187
DIRECTV 8               
1 28659U 05019A   18063.82867048 -.00000140  00000-0  00000+0 0  9991
2 28659   0.0148 224.2905 0003309 124.8094  10.8609  1.00272103 46844
GALAXY 28 (G-28)        
1 28702U 05022A   18064.48660472 -.00000208  00000-0  00000-0 0  9995
2 28702   0.0194 230.4409 0000182  29.8363 349.0484  1.00270858 46484
EXPRESS-AM3             
1 28707U 05023A   18064.86368753 -.00000344  00000-0  00000+0 0  9990
2 28707   0.0556 304.7063 0001358 344.6773 288.0794  1.00271869 46514
THAICOM 4               
1 28786U 05028A   18065.48987931 -.00000384  00000-0  00000+0 0  9990
2 28786   0.0226 141.4073 0002198 211.2097 107.3745  1.00269148 45990
GALAXY 14 (G-14)        
1 28790U 05030A   18064.61573771  .00000014  00000-0  00000-0 0  9995
2 28790   0.0474 305.1931 0002693  48.3147 266.4285  1.00272440 45970
